start=new Date('2021-12-30T00:00:00.000Z').valueOf();
sats=[{"MEAN_ANOMALY":"265.4681","ARG_OF_PERICENTER":"94.6536","DECAY_DATE":null,"OBJECT_NAME":"STARLINK-2763","COUNTRY_CODE":"US","ELEMENT_SET_NO":"999","MEAN_MOTION_DDOT":"0.0000000000000","RCS_SIZE":"LARGE","NORAD_CAT_ID":"48670","EPHEMERIS_TYPE":"0","MEAN_MOTION":"15.06394551","TIME_SYSTEM":"UTC","MEAN_MOTION_DOT":"0.00000733","FILE":"3255236","TLE_LINE2":"2 48670  53.0538 144.0110 0001999  94.6536 265.4681 15.06394551 33101","OBJECT_TYPE":"PAYLOAD","REF_FRAME":"TEME","ECCENTRICITY":"0.00019990","EPOCH":"2021-12-29T19:21:41.220576","GP_ID":"192746897","PERIAPSIS":"545.846","CENTER_NAME":"EARTH","BSTAR":"0.00006812400000","TLE_LINE1":"1 48670U 21044AJ  21363.80672709  .00000733  00000-0  68124-4 0  9998","OBJECT_ID":"2021-044AJ","PERIOD":"95.592","REV_AT_EPOCH":"3310","MEAN_ELEMENT_THEORY":"SGP4","RA_OF_ASC_NODE":"144.0110","LAUNCH_DATE":"2021-05-26","SITE":"AFETR","APOAPSIS":"548.615","CLASSIFICATION_TYPE":"U","INCLINATION":"53.0538","SEMIMAJOR_AXIS":"6925.365"},{"TLE_LINE2":"2 48671  53.0554 144.0323 0001649  94.4453 265.6724 15.06391614 33101","FILE":"3255236","REF_FRAME":"TEME","OBJECT_TYPE":"PAYLOAD","GP_ID":"192747141","EPOCH":"2021-12-29T19:16:22.980000","ECCENTRICITY":"0.00016490","PERIAPSIS":"546.097","ARG_OF_PERICENTER":"94.4453","DECAY_DATE":null,"MEAN_ANOMALY":"265.6724","OBJECT_NAME":"STARLINK-2745","MEAN_MOTION_DDOT":"0.0000000000000","ELEMENT_SET_NO":"999","COUNTRY_CODE":"US","EPHEMERIS_TYPE":"0","MEAN_MOTION":"15.06391614","TIME_SYSTEM":"UTC","MEAN_MOTION_DOT":"0.00000089","NORAD_CAT_ID":"48671","RCS_SIZE":"LARGE","CLASSIFICATION_TYPE":"U","APOAPSIS":"548.381","INCLINATION":"53.0554","SEMIMAJOR_AXIS":"6925.374","CENTER_NAME":"EARTH","BSTAR":"0.00002486000000","REV_AT_EPOCH":"3310","PERIOD":"95.593","MEAN_ELEMENT_THEORY":"SGP4","TLE_LINE1":"1 48671U 21044AK  21363.80304375  .00000089  00000-0  24860-4 0  9993","OBJECT_ID":"2021-044AK","RA_OF_ASC_NODE":"144.0323","SITE":"AFETR","LAUNCH_DATE":"2021-05-26"},{"RA_OF_ASC_NODE":"143.7473","LAUNCH_DATE":"2021-05-26","SITE":"AFETR","BSTAR":"-0.00008130900000","CENTER_NAME":"EARTH","OBJECT_ID":"2021-044AL","TLE_LINE1":"1 48672U 21044AL  21363.86570314 -.00001493  00000-0 -81309-4 0  9991","MEAN_ELEMENT_THEORY":"SGP4","PERIOD":"95.592","REV_AT_EPOCH":"3311","APOAPSIS":"548.631","CLASSIFICATION_TYPE":"U","SEMIMAJOR_AXIS":"6925.348","INCLINATION":"53.0553","COUNTRY_CODE":"US","ELEMENT_SET_NO":"999","MEAN_MOTION_DDOT":"0.0000000000000","RCS_SIZE":"LARGE","NORAD_CAT_ID":"48672","TIME_SYSTEM":"UTC","MEAN_MOTION_DOT":"-0.00001493","EPHEMERIS_TYPE":"0","MEAN_MOTION":"15.06400038","MEAN_ANOMALY":"260.4222","DECAY_DATE":null,"ARG_OF_PERICENTER":"99.6999","OBJECT_NAME":"STARLINK-2705","ECCENTRICITY":"0.00020470","GP_ID":"192745921","EPOCH":"2021-12-29T20:46:36.751296","PERIAPSIS":"545.796","FILE":"3255236","TLE_LINE2":"2 48672  53.0553 143.7473 0002047  99.6999 260.4222 15.06400038 33116","OBJECT_TYPE":"PAYLOAD","REF_FRAME":"TEME"},{"TLE_LINE2":"2 48673  53.0548 143.7603 0002127 103.7857 256.3369 15.06399741 33119","FILE":"3255236","REF_FRAME":"TEME","OBJECT_TYPE":"PAYLOAD","EPOCH":"2021-12-29T20:41:18.035520","GP_ID":"192745672","ECCENTRICITY":"0.00021270","PERIAPSIS":"545.741","DECAY_DATE":null,"ARG_OF_PERICENTER":"103.7857","MEAN_ANOMALY":"256.3369","OBJECT_NAME":"STARLINK-2711","MEAN_MOTION_DDOT":"0.0000000000000","COUNTRY_CODE":"US","ELEMENT_SET_NO":"999","TIME_SYSTEM":"UTC","MEAN_MOTION_DOT":"0.00000635","EPHEMERIS_TYPE":"0","MEAN_MOTION":"15.06399741","NORAD_CAT_ID":"48673","RCS_SIZE":"LARGE","CLASSIFICATION_TYPE":"U","APOAPSIS":"548.687","SEMIMAJOR_AXIS":"6925.349","INCLINATION":"53.0548","BSTAR":"0.00006153300000","CENTER_NAME":"EARTH","MEAN_ELEMENT_THEORY":"SGP4","REV_AT_EPOCH":"3311","PERIOD":"95.592","OBJECT_ID":"2021-044AM","TLE_LINE1":"1 48673U 21044AM  21363.86201430  .00000635  00000-0  61533-4 0  9994","RA_OF_ASC_NODE":"143.7603","LAUNCH_DATE":"2021-05-26","SITE":"AFETR"},{"SITE":"AFETR","LAUNCH_DATE":"2021-05-26","RA_OF_ASC_NODE":"144.6720","TLE_LINE1":"1 48674U 21044AN  21363.65929140  .00000547  00000-0  55628-4 0  9997","OBJECT_ID":"2021-044AN","PERIOD":"95.592","REV_AT_EPOCH":"3308","MEAN_ELEMENT_THEORY":"SGP4","BSTAR":"0.00005562800000","CENTER_NAME":"EARTH","INCLINATION":"53.0551","SEMIMAJOR_AXIS":"6925.348","APOAPSIS":"548.630","CLASSIFICATION_TYPE":"U","NORAD_CAT_ID":"48674","RCS_SIZE":"LARGE","MEAN_MOTION":"15.06400177","EPHEMERIS_TYPE":"0","TIME_SYSTEM":"UTC","MEAN_MOTION_DOT":"0.00000547","COUNTRY_CODE":"US","ELEMENT_SET_NO":"999","MEAN_MOTION_DDOT":"0.0000000000000","OBJECT_NAME":"STARLINK-2712","MEAN_ANOMALY":"269.0701","ARG_OF_PERICENTER":"91.0522","DECAY_DATE":null,"PERIAPSIS":"545.796","ECCENTRICITY":"0.00020460","GP_ID":"192746409","EPOCH":"2021-12-29T15:49:22.776960","OBJECT_TYPE":"PAYLOAD","REF_FRAME":"TEME","FILE":"3255236","TLE_LINE2":"2 48674  53.0551 144.6720 0002046  91.0522 269.0701 15.06400177 33085"},{"COUNTRY_CODE":"US","ELEMENT_SET_NO":"999","MEAN_MOTION_DDOT":"0.0000000000000","NORAD_CAT_ID":"48675","RCS_SIZE":"LARGE","EPHEMERIS_TYPE":"0","MEAN_MOTION":"15.06395497","MEAN_MOTION_DOT":"0.00001184","TIME_SYSTEM":"UTC","MEAN_ANOMALY":"260.2798","ARG_OF_PERICENTER":"99.8426","DECAY_DATE":null,"OBJECT_NAME":"STARLINK-2737","ECCENTRICITY":"0.00020750","EPOCH":"2021-12-29T17:19:36.852384","GP_ID":"192746654","PERIAPSIS":"545.790","FILE":"3255236","TLE_LINE2":"2 48675  53.0561 144.3996 0002075  99.8426 260.2798 15.06395497 33098","OBJECT_TYPE":"PAYLOAD","REF_FRAME":"TEME","RA_OF_ASC_NODE":"144.3996","SITE":"AFETR","LAUNCH_DATE":"2021-05-26","BSTAR":"0.00009841600000","CENTER_NAME":"EARTH","TLE_LINE1":"1 48675U 21044AP  21363.72195431  .00001184  00000-0  98416-4 0  9994","OBJECT_ID":"2021-044AP","REV_AT_EPOCH":"3309","PERIOD":"95.592","MEAN_ELEMENT_THEORY":"SGP4","APOAPSIS":"548.664","CLASSIFICATION_TYPE":"U","INCLINATION":"53.0561","SEMIMAJOR_AXIS":"6925.362"},{"SEMIMAJOR_AXIS":"6925.377","INCLINATION":"53.0555","APOAPSIS":"548.593","CLASSIFICATION_TYPE":"U","OBJECT_ID":"2021-044AQ","TLE_LINE1":"1 48676U 21044AQ  21363.78461438  .00000266  00000-0  36752-4 0  9999","MEAN_ELEMENT_THEORY":"SGP4","PERIOD":"95.593","REV_AT_EPOCH":"3310","CENTER_NAME":"EARTH","BSTAR":"0.00003675200000","LAUNCH_DATE":"2021-05-26","SITE":"AFETR","RA_OF_ASC_NODE":"144.1099","OBJECT_TYPE":"PAYLOAD","REF_FRAME":"TEME","TLE_LINE2":"2 48676  53.0555 144.1099 0001951  97.1370 262.9840 15.06390692 33106","FILE":"3255236","PERIAPSIS":"545.891","ECCENTRICITY":"0.00019510","GP_ID":"192745427","EPOCH":"2021-12-29T18:49:50.682432","OBJECT_NAME":"STARLINK-2746","MEAN_ANOMALY":"262.9840","DECAY_DATE":null,"ARG_OF_PERICENTER":"97.1370","RCS_SIZE":"LARGE","NORAD_CAT_ID":"48676","TIME_SYSTEM":"UTC","MEAN_MOTION_DOT":"0.00000266","MEAN_MOTION":"15.06390692","EPHEMERIS_TYPE":"0","COUNTRY_CODE":"US","ELEMENT_SET_NO":"999","MEAN_MOTION_DDOT":"0.0000000000000"},{"ECCENTRICITY":"0.00022080","GP_ID":"192746167","EPOCH":"2021-12-29T17:09:00.067968","PERIAPSIS":"545.700","TLE_LINE2":"2 48677  53.0553 144.4222 0002208  94.4665 265.6576 15.06394804 33092","FILE":"3255236","OBJECT_TYPE":"PAYLOAD","REF_FRAME":"TEME","COUNTRY_CODE":"US","ELEMENT_SET_NO":"999","MEAN_MOTION_DDOT":"0.0000000000000","NORAD_CAT_ID":"48677","RCS_SIZE":"LARGE","MEAN_MOTION":"15.06394804","EPHEMERIS_TYPE":"0","TIME_SYSTEM":"UTC","MEAN_MOTION_DOT":"0.00000485","MEAN_ANOMALY":"265.6576","ARG_OF_PERICENTER":"94.4665","DECAY_DATE":null,"OBJECT_NAME":"STARLINK-2719","APOAPSIS":"548.759","CLASSIFICATION_TYPE":"U","INCLINATION":"53.0553","SEMIMAJOR_AXIS":"6925.364","RA_OF_ASC_NODE":"144.4222","SITE":"AFETR","LAUNCH_DATE":"2021-05-26","BSTAR":"0.00005149200000","CENTER_NAME":"EARTH","TLE_LINE1":"1 48677U 21044AR  21363.71458412  .00000485  00000-0  51492-4 0  9992","OBJECT_ID":"2021-044AR","REV_AT_EPOCH":"3309","PERIOD":"95.592","MEAN_ELEMENT_THEORY":"SGP4"},{"MEAN_ANOMALY":"265.3931","ARG_OF_PERICENTER":"94.7277","DECAY_DATE":null,"OBJECT_NAME":"STARLINK-2615","COUNTRY_CODE":"US","ELEMENT_SET_NO":"999","MEAN_MOTION_DDOT":"0.0000000000000","NORAD_CAT_ID":"48678","RCS_SIZE":"LARGE","MEAN_MOTION":"15.06393691","EPHEMERIS_TYPE":"0","MEAN_MOTION_DOT":"0.00000567","TIME_SYSTEM":"UTC","FILE":"3255236","TLE_LINE2":"2 48678  53.0550 144.1491 0001918  94.7277 265.3931 15.06393691 33101","OBJECT_TYPE":"PAYLOAD","REF_FRAME":"TEME","ECCENTRICITY":"0.00019180","EPOCH":"2021-12-29T18:39:13.850496","GP_ID":"192746898","PERIAPSIS":"545.905","CENTER_NAME":"EARTH","BSTAR":"0.00005697700000","TLE_LINE1":"1 48678U 21044AS  21363.77724364  .00000567  00000-0  56977-4 0  9995","OBJECT_ID":"2021-044AS","PERIOD":"95.593","REV_AT_EPOCH":"3310","MEAN_ELEMENT_THEORY":"SGP4","RA_OF_ASC_NODE":"144.1491","LAUNCH_DATE":"2021-05-26","SITE":"AFETR","APOAPSIS":"548.561","CLASSIFICATION_TYPE":"U","INCLINATION":"53.0550","SEMIMAJOR_AXIS":"6925.368"},{"MEAN_MOTION_DDOT":"0.0000000000000","COUNTRY_CODE":"US","ELEMENT_SET_NO":"999","MEAN_MOTION_DOT":"0.00001881","TIME_SYSTEM":"UTC","MEAN_MOTION":"15.06402466","EPHEMERIS_TYPE":"0","NORAD_CAT_ID":"48679","RCS_SIZE":"LARGE","DECAY_DATE":null,"ARG_OF_PERICENTER":"97.9634","MEAN_ANOMALY":"262.1620","OBJECT_NAME":"STARLINK-2648","GP_ID":"192747142","EPOCH":"2021-12-29T18:33:55.299744","ECCENTRICITY":"0.00023360","PERIAPSIS":"545.588","FILE":"3255236","TLE_LINE2":"2 48679  53.0552 144.1693 0002336  97.9634 262.1620 15.06402466 33106","REF_FRAME":"TEME","OBJECT_TYPE":"PAYLOAD","RA_OF_ASC_NODE":"144.1693","LAUNCH_DATE":"2021-05-26","SITE":"AFETR","CENTER_NAME":"EARTH","BSTAR":"0.00014514000000","MEAN_ELEMENT_THEORY":"SGP4","PERIOD":"95.592","REV_AT_EPOCH":"3310","OBJECT_ID":"2021-044AT","TLE_LINE1":"1 48679U 21044AT  21363.77355671  .00001881  00000-0  14514-3 0  9997","CLASSIFICATION_TYPE":"U","APOAPSIS":"548.824","SEMIMAJOR_AXIS":"6925.341","INCLINATION":"53.0552"}];
